{
    "links": {
        "self": "http://www.neowsapp.com/rest/v1/neo/3557824?api_key=iIulBulltgU6a56xZRHN4H3l9WmuAYTsLGpBGhQ2"
    },
    "id": "3557824",
    "neo_reference_id": "3557824",
    "name": "(2011 BA60)",
    "designation": "2011 BA60",
    "nasa_jpl_url": "http://ssd.jpl.nasa.gov/sbdb.cgi?sstr=3557824",
    "absolute_magnitude_h": 22.363,
    "estimated_diameter": {
        "kilometers": {
            "estimated_diameter_min": 0.0895271948,
            "estimated_diameter_max": 0.2001888933
        },
        "meters": {
            "estimated_diameter_min": 89.5271947722,
            "estimated_diameter_max": 200.1888933454
        },
        "miles": {
            "estimated_diameter_min": 0.0556296025,
            "estimated_diameter_max": 0.1243915728
        },
        "feet": {
            "estimated_diameter_min": 293.7244016963,
            "estimated_diameter_max": 656.7877288435
        }
    },
    "is_potentially_hazardous_asteroid": false,
    "close_approach_data": [
        {
            "close_approach_date": "2011-02-18",
            "close_approach_date_full": "2011-Feb-18 09:26",
            "epoch_date_close_approach": 1298021160000,
            "relative_velocity": {
                "kilometers_per_second": "10.8339523867",
                "kilometers_per_hour": "39002.2285921434",
                "miles_per_hour": "24234.4680938238"
            },
            "miss_distance": {
                "astronomical": "0.1437441622",
                "lunar": "55.9164790958",
                "kilometers": "21503820.490054514",
                "miles": "13361854.4550957332"
            },
            "orbiting_body": "Earth"
        },
        {
            "close_approach_date": "2137-12-30",
            "close_approach_date_full": "2137-Dec-30 02:20",
            "epoch_date_close_approach": 5301426000000,
            "relative_velocity": {
                "kilometers_per_second": "17.1753400098",
                "kilometers_per_hour": "61831.2240352246",
                "miles_per_hour": "38419.5180678872"
            },
            "miss_distance": {
                "astronomical": "0.1738686547",
                "lunar": "67.6349066783",
                "kilometers": "26010380.402885489",
                "miles": "16162100.9357741882"
            },
            "orbiting_body": "Earth"
        }
    ],
    "orbital_data": {
        "orbit_id": "7",
        "orbit_determination_date": "2020-06-12 06:24:38",
        "first_observation_date": "2011-01-29",
        "last_observation_date": "2011-02-09",
        "data_arc_in_days": 11,
        "observations_used": 9,
        "orbit_uncertainty": "8",
        "minimum_orbit_intersection": ".0277592",
        "jupiter_tisserand_invariant": "3.689",
        "epoch_osculation": "2455591.5",
        "eccentricity": ".5445825391960631",
        "semi_major_axis": "1.938811383230552",
        "inclination": "10.96077545554162",
        "ascending_node_longitude": "119.4078487356668",
        "orbital_period": "986.0564272494775",
        "perihelion_distance": ".8829685571286264",
        "perihelion_argument": "34.18317622147983",
        "aphelion_distance": "2.994654209332477",
        "perihelion_time": "2455616.186566063650",
        "mean_anomaly": "350.9871650979407",
        "mean_motion": ".3650906682938928",
        "equinox": "J2000",
        "orbit_class": {
            "orbit_class_type": "APO",
            "orbit_class_description": "Near-Earth asteroid orbits which cross the Earth’s orbit similar to that of 1862 Apollo",
            "orbit_class_range": "a (semi-major axis) > 1.0 AU; q (perihelion) < 1.017 AU"
        }
    },
    "is_sentry_object": false
}